{"type": "FeatureCollection", "features": [ {"type": "Feature", "properties": {"norad_id": 37550, "name": "IRIDIUM 33 DEB", "group": "iridium-33-debris", "lat": 35.34325500254696, "lon": 22.271093628718525, "alt_km": 664.8913349134373, "timestamp": "2025-12-22T04:03:39.554445+00:00", "meta": {"OBJECT_NAME": "IRIDIUM 33 DEB", "OBJECT_ID": "1997-051XK", "EPOCH": "2025-12-19T08:47:41.172864", "MEAN_MOTION": 14.67293181, "ECCENTRICITY": 0.0005615, "INCLINATION": 86.3772, "RA_OF_ASC_NODE": 20.938, "ARG_OF_PERICENTER": 96.5697, "MEAN_ANOMALY": 263.6157, "EPHEMERIS_TYPE": 0, "CLASSIFICATION_TYPE": "U", "NORAD_CAT_ID": 37550, "ELEMENT_SET_NO": 999, "REV_AT_EPOCH": 86430, "BSTAR": 0.00085807, "MEAN_MOTION_DOT": 4.861e-05, "MEAN_MOTION_DDOT": 0}, "tle": {"line1": "1 37550U 97051XK  25353.36644876  .00004861  00000+0  85807-3 0  9993", "line2": "2 37550  86.3772  20.9380 0005615  96.5697 263.6157 14.67293181864309"}}, "geometry": {"type": "Point", "coordinates": [22.271093628718525, 35.34325500254696]}}, {"type": "Feature", "properties": {"norad_id": 37562, "name": "IRIDIUM 33 DEB", "group": "iridium-33-debris", "lat": -59.61656703498205, "lon": -134.30149721755836, "alt_km": 729.438446817122, "timestamp": "2025-12-22T04:03:39.554456+00:00", "meta": {"OBJECT_NAME": "IRIDIUM 33 DEB", "OBJECT_ID": "1997-051XX", "EPOCH": "2025-12-20T09:49:22.908288", "MEAN_MOTION": 14.56536223, "ECCENTRICITY": 0.00265257, "INCLINATION": 86.3738, "RA_OF_ASC_NODE": 40.2566, "ARG_OF_PERICENTER": 83.7346, "MEAN_ANOMALY": 293.6722, "EPHEMERIS_TYPE": 0, "CLASSIFICATION_TYPE": "U", "NORAD_CAT_ID": 37562, "ELEMENT_SET_NO": 999, "REV_AT_EPOCH": 86440, "BSTAR": 0.00062409577, "MEAN_MOTION_DOT": 2.811e-05, "MEAN_MOTION_DDOT": 0}, "tle": {"line1": "1 37562U 97051XX  25354.40929292  .00002811  00000+0  62410-3 0  9998", "line2": "2 37562  86.3738  40.2566 0026525  83.7346 293.6722 14.56536223864404"}}, "geometry": {"type": "Point", "coordinates": [-134.30149721755836, -59.61656703498205]}}, {"type": "Feature", "properties": {"norad_id": 37565, "name": "IRIDIUM 33 DEB", "group": "iridium-33-debris", "lat": -31.68673084369477, "lon": -172.26961721608268, "alt_km": 736.3528158268928, "timestamp": "2025-12-22T04:03:39.554466+00:00", "meta": {"OBJECT_NAME": "IRIDIUM 33 DEB", "OBJECT_ID": "1997-051YA", "EPOCH": "2025-12-20T18:00:01.779840", "MEAN_MOTION": 14.51546938, "ECCENTRICITY": 0.00148844, "INCLINATION": 86.3492, "RA_OF_ASC_NODE": 6.0897, "ARG_OF_PERICENTER": 60.9074, "MEAN_ANOMALY": 299.362, "EPHEMERIS_TYPE": 0, "CLASSIFICATION_TYPE": "U", "NORAD_CAT_ID": 37565, "ELEMENT_SET_NO": 999, "REV_AT_EPOCH": 65953, "BSTAR": 0.00034536984, "MEAN_MOTION_DOT": 1.404e-05, "MEAN_MOTION_DDOT": 0}, "tle": {"line1": "1 37565U 97051YA  25354.75002060  .00001404  00000+0  34537-3 0  9990", "line2": "2 37565  86.3492   6.0897 0014884  60.9074 299.3620 14.51546938659536"}}, "geometry": {"type": "Point", "coordinates": [-172.26961721608268, -31.68673084369477]}}, {"type": "Feature", "properties": {"norad_id": 38017, "name": "IRIDIUM 33 DEB", "group": "iridium-33-debris", "lat": -40.03683516593228, "lon": -14.789655352645607, "alt_km": 789.9513905029889, "timestamp": "2025-12-22T04:03:39.554476+00:00", "meta": {"OBJECT_NAME": "IRIDIUM 33 DEB", "OBJECT_ID": "1997-051YD", "EPOCH": "2025-12-21T17:06:48.866112", "MEAN_MOTION": 14.4927867, "ECCENTRICITY": 0.0091641, "INCLINATION": 86.3414, "RA_OF_ASC_NODE": 162.3271, "ARG_OF_PERICENTER": 73.0367, "MEAN_ANOMALY": 288.0856, "EPHEMERIS_TYPE": 0, "CLASSIFICATION_TYPE": "U", "NORAD_CAT_ID": 38017, "ELEMENT_SET_NO": 999, "REV_AT_EPOCH": 61532, "BSTAR": 0.0034116, "MEAN_MOTION_DOT": 0.00013762, "MEAN_MOTION_DDOT": 0}, "tle": {"line1": "1 38017U 97051YD  25355.71306558  .00013762  00000+0  34116-2 0  9991", "line2": "2 38017  86.3414 162.3271 0091641  73.0367 288.0856 14.49278670615328"}}, "geometry": {"type": "Point", "coordinates": [-14.789655352645607, -40.03683516593228]}}, {"type": "Feature", "properties": {"norad_id": 38022, "name": "IRIDIUM 33 DEB", "group": "iridium-33-debris", "lat": 84.10540691289627, "lon": 153.10570678829185, "alt_km": 737.9353048934909, "timestamp": "2025-12-22T04:03:39.554486+00:00", "meta": {"OBJECT_NAME": "IRIDIUM 33 DEB", "OBJECT_ID": "1997-051YJ", "EPOCH": "2025-12-19T18:58:32.469312", "MEAN_MOTION": 14.41290935, "ECCENTRICITY": 0.00458382, "INCLINATION": 86.2683, "RA_OF_ASC_NODE": 13.3554, "ARG_OF_PERICENTER": 27.8099, "MEAN_ANOMALY": 332.5536, "EPHEMERIS_TYPE": 0, "CLASSIFICATION_TYPE": "U", "NORAD_CAT_ID": 38022, "ELEMENT_SET_NO": 999, "REV_AT_EPOCH": 69295, "BSTAR": 0.00071023159, "MEAN_MOTION_DOT": 2.344e-05, "MEAN_MOTION_DDOT": 0}, "tle": {"line1": "1 38022U 97051YJ  25353.79065358  .00002344  00000+0  71023-3 0  9996", "line2": "2 38022  86.2683  13.3554 0045838  27.8099 332.5536 14.41290935692950"}}, "geometry": {"type": "Point", "coordinates": [153.10570678829185, 84.10540691289627]}}, {"type": "Feature", "properties": {"norad_id": 38028, "name": "IRIDIUM 33 DEB", "group": "iridium-33-debris", "lat": 43.525362451741394, "lon": -0.3302995776371437, "alt_km": 719.7926606086176, "timestamp": "2025-12-22T04:03:39.554496+00:00", "meta": {"OBJECT_NAME": "IRIDIUM 33 DEB", "OBJECT_ID": "1997-051YQ", "EPOCH": "2025-12-19T17:44:22.316352", "MEAN_MOTION": 14.46188799, "ECCENTRICITY": 0.0030512, "INCLINATION": 86.3252, "RA_OF_ASC_NODE": 357.2262, "ARG_OF_PERICENTER": 99.065, "MEAN_ANOMALY": 261.4007, "EPHEMERIS_TYPE": 0, "CLASSIFICATION_TYPE": "U", "NORAD_CAT_ID": 38028, "ELEMENT_SET_NO": 999, "REV_AT_EPOCH": 65596, "BSTAR": 0.00016660929, "MEAN_MOTION_DOT": 6.2e-06, "MEAN_MOTION_DDOT": 0}, "tle": {"line1": "1 38028U 97051YQ  25353.73914718  .00000620  00000+0  16661-3 0  9991", "line2": "2 38028  86.3252 357.2262 0030512  99.0650 261.4007 14.46188799655964"}}, "geometry": {"type": "Point", "coordinates": [-0.3302995776371437, 43.525362451741394]}}, {"type": "Feature", "properties": {"norad_id": 38228, "name": "IRIDIUM 33 DEB", "group": "iridium-33-debris", "lat": 56.034474652889614, "lon": 49.982386049798905, "alt_km": 805.6686721823089, "timestamp": "2025-12-22T04:03:39.554506+00:00", "meta": {"OBJECT_NAME": "IRIDIUM 33 DEB", "OBJECT_ID": "1997-051ZC", "EPOCH": "2025-12-20T22:20:09.818016", "MEAN_MOTION": 14.2727844, "ECCENTRICITY": 0.0065198, "INCLINATION": 86.2935, "RA_OF_ASC_NODE": 44.9869, "ARG_OF_PERICENTER": 163.0896, "MEAN_ANOMALY": 14.0405, "EPHEMERIS_TYPE": 0, "CLASSIFICATION_TYPE": "U", "NORAD_CAT_ID": 38228, "ELEMENT_SET_NO": 999, "REV_AT_EPOCH": 84898, "BSTAR": 0.00020665, "MEAN_MOTION_DOT": 5.36e-06, "MEAN_MOTION_DDOT": 0}, "tle": {"line1": "1 38228U 97051ZC  25354.93066919  .00000536  00000+0  20665-3 0  9992", "line2": "2 38228  86.2935  44.9869 0065198 163.0896  14.0405 14.27278440848980"}}, "geometry": {"type": "Point", "coordinates": [49.982386049798905, 56.034474652889614]}}, {"type": "Feature", "properties": {"norad_id": 38241, "name": "IRIDIUM 33 DEB", "group": "iridium-33-debris", "lat": -14.989460588338114, "lon": 167.4256894344693, "alt_km": 717.5828514354962, "timestamp": "2025-12-22T04:03:39.554516+00:00", "meta": {"OBJECT_NAME": "IRIDIUM 33 DEB", "OBJECT_ID": "1997-051ZR", "EPOCH": "2025-12-18T18:17:11.654016", "MEAN_MOTION": 14.54903336, "ECCENTRICITY": 0.00053297, "INCLINATION": 86.3221, "RA_OF_ASC_NODE": 347.9418, "ARG_OF_PERICENTER": 59.8994, "MEAN_ANOMALY": 300.274, "EPHEMERIS_TYPE": 0, "CLASSIFICATION_TYPE": "U", "NORAD_CAT_ID": 38241, "ELEMENT_SET_NO": 999, "REV_AT_EPOCH": 60288, "BSTAR": 0.0005578999, "MEAN_MOTION_DOT": 2.417e-05, "MEAN_MOTION_DDOT": 0}, "tle": {"line1": "1 38241U 97051ZR  25352.76194044  .00002417  00000+0  55790-3 0  9994", "line2": "2 38241  86.3221 347.9418 0005329  59.8994 300.2740 14.54903336602889"}}, "geometry": {"type": "Point", "coordinates": [167.4256894344693, -14.989460588338114]}}, {"type": "Feature", "properties": {"norad_id": 38474, "name": "IRIDIUM 33 DEB", "group": "iridium-33-debris", "lat": -6.4785763667956155, "lon": -173.6292766766354, "alt_km": 739.2566709615412, "timestamp": "2025-12-22T04:03:39.554526+00:00", "meta": {"OBJECT_NAME": "IRIDIUM 33 DEB", "OBJECT_ID": "1997-051AAB", "EPOCH": "2025-12-21T07:20:31.212384", "MEAN_MOTION": 14.50718538, "ECCENTRICITY": 0.0027615, "INCLINATION": 86.3426, "RA_OF_ASC_NODE": 6.3307, "ARG_OF_PERICENTER": 61.1056, "MEAN_ANOMALY": 299.2914, "EPHEMERIS_TYPE": 0, "CLASSIFICATION_TYPE": "U", "NORAD_CAT_ID": 38474, "ELEMENT_SET_NO": 999, "REV_AT_EPOCH": 65442, "BSTAR": 0.00039086, "MEAN_MOTION_DOT": 1.564e-05, "MEAN_MOTION_DDOT": 0}, "tle": {"line1": "1 38474U 97051AAB 25355.30591681  .00001564  00000+0  39086-3 0  9995", "line2": "2 38474  86.3426   6.3307 0027615  61.1056 299.2914 14.50718538654425"}}, "geometry": {"type": "Point", "coordinates": [-173.6292766766354, -6.4785763667956155]}}, {"type": "Feature", "properties": {"norad_id": 39777, "name": "IRIDIUM 33 DEB", "group": "iridium-33-debris", "lat": 69.19824298695953, "lon": -178.81778535647496, "alt_km": 693.6440614527028, "timestamp": "2025-12-22T04:03:39.554536+00:00", "meta": {"OBJECT_NAME": "IRIDIUM 33 DEB", "OBJECT_ID": "1997-051AAJ", "EPOCH": "2025-12-17T11:37:29.440128", "MEAN_MOTION": 14.56536598, "ECCENTRICITY": 0.00601884, "INCLINATION": 85.9622, "RA_OF_ASC_NODE": 172.7412, "ARG_OF_PERICENTER": 170.5587, "MEAN_ANOMALY": 189.6768, "EPHEMERIS_TYPE": 0, "CLASSIFICATION_TYPE": "U", "NORAD_CAT_ID": 39777, "ELEMENT_SET_NO": 999, "REV_AT_EPOCH": 60254, "BSTAR": 0.0020288102, "MEAN_MOTION_DOT": 9.279e-05, "MEAN_MOTION_DDOT": 0}, "tle": {"line1": "1 39777U 97051AAJ 25351.48436852  .00009279  00000+0  20288-2 0  9999", "line2": "2 39777  85.9622 172.7412 0060188 170.5587 189.6768 14.56536598602541"}}, "geometry": {"type": "Point", "coordinates": [-178.81778535647496, 69.19824298695953]}}]}